GPS BIIA-23 (PRN 18)    
1 22877U 93068A   18117.96632799 -.00000026  00000-0  00000-0 0  9990
2 22877  54.3945  85.5648 0142136  74.2196  62.3115  2.00564507179521